[{"OBJECT_NAME":"STARLINK-3990","OBJECT_ID":"2022-052AE","EPOCH":"2026-03-09T20:53:03.027552","MEAN_MOTION":15.08844583,"ECCENTRICITY":0.00012497,"INCLINATION":53.2165,"RA_OF_ASC_NODE":268.3106,"ARG_OF_PERICENTER":80.5521,"MEAN_ANOMALY":279.5612,"EPHEMERIS_TYPE":0,"CLASSIFICATION_TYPE":"U","NORAD_CAT_ID":52626,"ELEMENT_SET_NO":999,"REV_AT_EPOCH":21101,"BSTAR":-3.9336765e-5,"MEAN_MOTION_DOT":-9.14e-6,"MEAN_MOTION_DDOT":0},{"OBJECT_NAME":"COSMOS 397 DEB","OBJECT_ID":"1971-015D","EPOCH":"2026-03-09T13:45:21.862944","MEAN_MOTION":13.72086922,"ECCENTRICITY":0.0619447,"INCLINATION":65.8363,"RA_OF_ASC_NODE":222.312,"ARG_OF_PERICENTER":314.4555,"MEAN_ANOMALY":40.7385,"EPHEMERIS_TYPE":0,"CLASSIFICATION_TYPE":"U","NORAD_CAT_ID":5010,"ELEMENT_SET_NO":999,"REV_AT_EPOCH":63519,"BSTAR":0.00085725,"MEAN_MOTION_DOT":3.091e-5,"MEAN_MOTION_DDOT":0}]
